{
  "type": "FeatureCollection",
  "features": [
    {
      "type": "Feature",
      "properties": {
        "norad_id": 34314,
        "name": "COSMOS 2251 DEB",
        "group": "cosmos-2251-debris",
        "lat": 50.92785830089414,
        "lon": 89.47955839593182,
        "alt_km": 831.6013041310061,
        "timestamp": "2025-12-22T22:44:21.373179+00:00",
        "meta_object_name": "COSMOS 2251 DEB",
        "meta_object_id": "1993-036NL",
        "meta_epoch": "2025-12-22T13:56:26.210688",
        "meta_mean_motion": 14.17446993,
        "meta_eccentricity": 0.01033723,
        "meta_inclination": 74.0061,
        "meta_ra_of_asc_node": 290.8212,
        "meta_arg_of_pericenter": 34.1701,
        "meta_mean_anomaly": 20.7097,
        "meta_ephemeris_type": 0,
        "meta_classification_type": "U",
        "meta_norad_cat_id": 34314,
        "meta_element_set_no": 999,
        "meta_rev_at_epoch": 86797,
        "meta_bstar": 0.00062207213,
        "meta_mean_motion_dot": 1.304e-05,
        "meta_mean_motion_ddot": 0,
        "tle_line1": "1 34314U 93036NL  25356.58085892  .00001304  00000+0  62207-3 0  9999",
        "tle_line2": "2 34314  74.0061 290.8212 0103372  34.1701  20.7097 14.17446993867971"
      },
      "geometry": {
        "type": "Point",
        "coordinates": [
          89.47955839593182,
          50.92785830089414
        ]
      }
    },
    {
      "type": "Feature",
      "properties": {
        "norad_id": 34316,
        "name": "COSMOS 2251 DEB",
        "group": "cosmos-2251-debris",
        "lat": 6.496734960714302,
        "lon": 134.5717457259126,
        "alt_km": 597.5994041477243,
        "timestamp": "2025-12-22T22:44:21.373190+00:00",
        "meta_object_name": "COSMOS 2251 DEB",
        "meta_object_id": "1993-036NN",
        "meta_epoch": "2025-12-22T04:15:57.737376",
        "meta_mean_motion": 14.92099626,
        "meta_eccentricity": 0.0008981,
        "meta_inclination": 74.0657,
        "meta_ra_of_asc_node": 317.9779,
        "meta_arg_of_pericenter": 38.8154,
        "meta_mean_anomaly": 321.3672,
        "meta_ephemeris_type": 0,
        "meta_classification_type": "U",
        "meta_norad_cat_id": 34316,
        "meta_element_set_no": 999,
        "meta_rev_at_epoch": 89350,
        "meta_bstar": 0.0018667511,
        "meta_mean_motion_dot": 0.00019004,
        "meta_mean_motion_ddot": 0,
        "tle_line1": "1 34316U 93036NN  25356.17775159  .00019004  00000+0  18668-2 0  9995",
        "tle_line2": "2 34316  74.0657 317.9779 0008981  38.8154 321.3672 14.92099626893503"
      },
      "geometry": {
        "type": "Point",
        "coordinates": [
          134.5717457259126,
          6.496734960714302
        ]
      }
    },
    {
      "type": "Feature",
      "properties": {
        "norad_id": 34317,
        "name": "COSMOS 2251 DEB",
        "group": "cosmos-2251-debris",
        "lat": -57.94864947621127,
        "lon": -8.468256327384422,
        "alt_km": 923.6817369166229,
        "timestamp": "2025-12-22T22:44:21.373200+00:00",
        "meta_object_name": "COSMOS 2251 DEB",
        "meta_object_id": "1993-036NP",
        "meta_epoch": "2025-12-22T09:01:47.527392",
        "meta_mean_motion": 13.6513339,
        "meta_eccentricity": 0.03368794,
        "meta_inclination": 73.9243,
        "meta_ra_of_asc_node": 19.8936,
        "meta_arg_of_pericenter": 7.2921,
        "meta_mean_anomaly": 8.1885,
        "meta_ephemeris_type": 0,
        "meta_classification_type": "U",
        "meta_norad_cat_id": 34317,
        "meta_element_set_no": 999,
        "meta_rev_at_epoch": 83751,
        "meta_bstar": 0.00057074602,
        "meta_mean_motion_dot": 6.59e-06,
        "meta_mean_motion_ddot": 0,
        "tle_line1": "1 34317U 93036NP  25356.37624453  .00000659  00000+0  57075-3 0  9990",
        "tle_line2": "2 34317  73.9243  19.8936 0336879   7.2921   8.1885 13.65133390837519"
      },
      "geometry": {
        "type": "Point",
        "coordinates": [
          -8.468256327384422,
          -57.94864947621127
        ]
      }
    },
    {
      "type": "Feature",
      "properties": {
        "norad_id": 34321,
        "name": "COSMOS 2251 DEB",
        "group": "cosmos-2251-debris",
        "lat": -41.75724210293079,
        "lon": -28.00195585947104,
        "alt_km": 723.1344680954844,
        "timestamp": "2025-12-22T22:44:21.373210+00:00",
        "meta_object_name": "COSMOS 2251 DEB",
        "meta_object_id": "1993-036NT",
        "meta_epoch": "2025-12-22T12:05:04.786368",
        "meta_mean_motion": 14.50095557,
        "meta_eccentricity": 0.0016022,
        "meta_inclination": 74.0275,
        "meta_ra_of_asc_node": 138.0169,
        "meta_arg_of_pericenter": 266.9471,
        "meta_mean_anomaly": 160.3475,
        "meta_ephemeris_type": 0,
        "meta_classification_type": "U",
        "meta_norad_cat_id": 34321,
        "meta_element_set_no": 999,
        "meta_rev_at_epoch": 88628,
        "meta_bstar": 0.000525839,
        "meta_mean_motion_dot": 2.016e-05,
        "meta_mean_motion_ddot": 0,
        "tle_line1": "1 34321U 93036NT  25356.50352762  .00002016  00000+0  52584-3 0  9990",
        "tle_line2": "2 34321  74.0275 138.0169 0016022 266.9471 160.3475 14.50095557886283"
      },
      "geometry": {
        "type": "Point",
        "coordinates": [
          -28.00195585947104,
          -41.75724210293079
        ]
      }
    },
    {
      "type": "Feature",
      "properties": {
        "norad_id": 34323,
        "name": "COSMOS 2251 DEB",
        "group": "cosmos-2251-debris",
        "lat": 55.0321940956987,
        "lon": 127.37910938846218,
        "alt_km": 637.4097521762415,
        "timestamp": "2025-12-22T22:44:21.373221+00:00",
        "meta_object_name": "COSMOS 2251 DEB",
        "meta_object_id": "1993-036NV",
        "meta_epoch": "2025-12-22T08:05:29.670144",
        "meta_mean_motion": 14.74706103,
        "meta_eccentricity": 0.00577784,
        "meta_inclination": 73.9541,
        "meta_ra_of_asc_node": 104.2764,
        "meta_arg_of_pericenter": 145.9569,
        "meta_mean_anomaly": 274.432,
        "meta_ephemeris_type": 0,
        "meta_classification_type": "U",
        "meta_norad_cat_id": 34323,
        "meta_element_set_no": 999,
        "meta_rev_at_epoch": 88581,
        "meta_bstar": 0.0025246725,
        "meta_mean_motion_dot": 0.00017341,
        "meta_mean_motion_ddot": 0,
        "tle_line1": "1 34323U 93036NV  25356.33714896  .00017341  00000+0  25247-2 0  9995",
        "tle_line2": "2 34323  73.9541 104.2764 0057778 145.9569 274.4320 14.74706103885818"
      },
      "geometry": {
        "type": "Point",
        "coordinates": [
          127.37910938846218,
          55.0321940956987
        ]
      }
    },
    {
      "type": "Feature",
      "properties": {
        "norad_id": 34325,
        "name": "COSMOS 2251 DEB",
        "group": "cosmos-2251-debris",
        "lat": -40.39418364443371,
        "lon": 9.075707711194173,
        "alt_km": 765.7548958184279,
        "timestamp": "2025-12-22T22:44:21.373231+00:00",
        "meta_object_name": "COSMOS 2251 DEB",
        "meta_object_id": "1993-036NX",
        "meta_epoch": "2025-12-22T11:34:12.778176",
        "meta_mean_motion": 14.0453164,
        "meta_eccentricity": 0.01915677,
        "meta_inclination": 73.8701,
        "meta_ra_of_asc_node": 175.6408,
        "meta_arg_of_pericenter": 191.1503,
        "meta_mean_anomaly": 197.845,
        "meta_ephemeris_type": 0,
        "meta_classification_type": "U",
        "meta_norad_cat_id": 34325,
        "meta_element_set_no": 999,
        "meta_rev_at_epoch": 85652,
        "meta_bstar": 0.001912921,
        "meta_mean_motion_dot": 3.573e-05,
        "meta_mean_motion_ddot": 0,
        "tle_line1": "1 34325U 93036NX  25356.48209234  .00003573  00000+0  19129-2 0  9992",
        "tle_line2": "2 34325  73.8701 175.6408 0191567 191.1503 197.8450 14.04531640856523"
      },
      "geometry": {
        "type": "Point",
        "coordinates": [
          9.075707711194173,
          -40.39418364443371
        ]
      }
    },
    {
      "type": "Feature",
      "properties": {
        "norad_id": 34327,
        "name": "COSMOS 2251 DEB",
        "group": "cosmos-2251-debris",
        "lat": -73.94222616978118,
        "lon": 57.231732795267334,
        "alt_km": 593.994648846281,
        "timestamp": "2025-12-22T22:44:21.373241+00:00",
        "meta_object_name": "COSMOS 2251 DEB",
        "meta_object_id": "1993-036NZ",
        "meta_epoch": "2025-12-22T12:06:47.865024",
        "meta_mean_motion": 14.89383161,
        "meta_eccentricity": 0.00334417,
        "meta_inclination": 73.9934,
        "meta_ra_of_asc_node": 152.3164,
        "meta_arg_of_pericenter": 326.7772,
        "meta_mean_anomaly": 89.4484,
        "meta_ephemeris_type": 0,
        "meta_classification_type": "U",
        "meta_norad_cat_id": 34327,
        "meta_element_set_no": 999,
        "meta_rev_at_epoch": 89653,
        "meta_bstar": 0.0013815445,
        "meta_mean_motion_dot": 0.00013248,
        "meta_mean_motion_ddot": 0,
        "tle_line1": "1 34327U 93036NZ  25356.50472066  .00013248  00000+0  13815-2 0  9998",
        "tle_line2": "2 34327  73.9934 152.3164 0033441 326.7772  89.4484 14.89383161896539"
      },
      "geometry": {
        "type": "Point",
        "coordinates": [
          57.231732795267334,
          -73.94222616978118
        ]
      }
    }
  ]
}